{
    "links": {
        "self": "http://www.neowsapp.com/rest/v1/neo/3989722?api_key=iIulBulltgU6a56xZRHN4H3l9WmuAYTsLGpBGhQ2"
    },
    "id": "3989722",
    "neo_reference_id": "3989722",
    "name": "(2020 CV1)",
    "designation": "2020 CV1",
    "nasa_jpl_url": "http://ssd.jpl.nasa.gov/sbdb.cgi?sstr=3989722",
    "absolute_magnitude_h": 20.923,
    "estimated_diameter": {
        "kilometers": {
            "estimated_diameter_min": 0.173762068,
            "estimated_diameter_max": 0.3885437959
        },
        "meters": {
            "estimated_diameter_min": 173.7620679938,
            "estimated_diameter_max": 388.5437959451
        },
        "miles": {
            "estimated_diameter_min": 0.10797071,
            "estimated_diameter_max": 0.241429847
        },
        "feet": {
            "estimated_diameter_min": 570.0855431568,
            "estimated_diameter_max": 1274.7500274886
        }
    },
    "is_potentially_hazardous_asteroid": false,
    "close_approach_data": [
        {
            "close_approach_date": "2020-02-26",
            "close_approach_date_full": "2020-Feb-26 09:35",
            "epoch_date_close_approach": 1582709700000,
            "relative_velocity": {
                "kilometers_per_second": "30.9779601496",
                "kilometers_per_hour": "111520.6565383811",
                "miles_per_hour": "69294.5990585291"
            },
            "miss_distance": {
                "astronomical": "0.3530509317",
                "lunar": "137.3368124313",
                "kilometers": "52815667.383835479",
                "miles": "32818133.9152244502"
            },
            "orbiting_body": "Earth"
        }
    ],
    "orbital_data": {
        "orbit_id": "1",
        "orbit_determination_date": "2020-02-06 07:42:04",
        "first_observation_date": "2020-01-28",
        "last_observation_date": "2020-02-06",
        "data_arc_in_days": 9,
        "observations_used": 10,
        "orbit_uncertainty": "9",
        "minimum_orbit_intersection": ".216098",
        "jupiter_tisserand_invariant": "4.132",
        "epoch_osculation": "2458881.5",
        "eccentricity": ".6324333315894322",
        "semi_major_axis": "1.536755215378051",
        "inclination": "27.60346826170654",
        "ascending_node_longitude": "325.5251278943344",
        "orbital_period": "695.8337194092703",
        "perihelion_distance": ".5648599946790749",
        "perihelion_argument": "307.5738049314041",
        "aphelion_distance": "2.508650436077027",
        "perihelion_time": "2458957.375124307851",
        "mean_anomaly": "320.7448676473806",
        "mean_motion": ".5173649824064618",
        "equinox": "J2000",
        "orbit_class": {
            "orbit_class_type": "APO",
            "orbit_class_description": "Near-Earth asteroid orbits which cross the Earth’s orbit similar to that of 1862 Apollo",
            "orbit_class_range": "a (semi-major axis) > 1.0 AU; q (perihelion) < 1.017 AU"
        }
    },
    "is_sentry_object": false
}